ONEWEB-0545             
1 54647U 22166F   25075.75692592  .00000109  00000+0  23155-3 0  9995
2 54647  87.9331 335.1899 0002098  95.9724 264.1649 13.21826878111070
ONEWEB-0580             
1 54648U 22166G   25075.95720412  .00000089  00000+0  18383-3 0  9995
2 54648  87.9337 335.1392 0001753  94.6185 265.5149 13.21827201111148
ONEWEB-0582             
1 54649U 22166H   25075.77269508  .00000077  00000+0  15554-3 0  9994
2 54649  87.9317 335.1984 0001716  99.9230 260.2097 13.21827488111097
ONEWEB-0583             
1 54650U 22166J   25075.78373395  .00000011  00000+0 -36855-5 0  9995
2 54650  87.9335 335.1984 0001829  83.3324 276.8018 13.21827250111100
ONEWEB-0584             
1 54651U 22166K   25075.95563133  .00000042  00000+0  69360-4 0  9995
2 54651  87.9337 335.1438 0001593  93.7765 266.3551 13.21826845111115
ONEWEB-0585             
1 54652U 22166L   25075.98085892  .00000033  00000+0  47421-4 0  9994
2 54652  87.9327 335.1360 0001741  76.0097 284.1231 13.21826301111127
ONEWEB-0586             
1 54653U 22166M   25075.76637834  .00000066  00000+0  12926-3 0  9997
2 54653  87.9334 335.1939 0001799  86.3012 273.8328 13.21828546111093
ONEWEB-0587             
1 54654U 22166N   25075.77584349  .00000045  00000+0  76287-4 0  9999
2 54654  87.9333 335.1429 0001804  72.3558 287.7772 13.21828115111251
